{"type": "FeatureCollection", "features": [ {"type": "Feature", "properties": {"norad_id": 34001, "name": "COSMOS 2251 DEB", "group": "cosmos-2251-debris", "lat": -24.55541310010384, "lon": 82.71460081563262, "alt_km": 782.2080040760993, "timestamp": "2025-12-27T02:10:16.582347+00:00", "meta": {"OBJECT_NAME": "COSMOS 2251 DEB", "OBJECT_ID": "1993-036GL", "EPOCH": "2025-12-26T02:24:35.131104", "MEAN_MOTION": 14.37113172, "ECCENTRICITY": 0.00205, "INCLINATION": 74.0384, "RA_OF_ASC_NODE": 257.0206, "ARG_OF_PERICENTER": 335.395, "MEAN_ANOMALY": 150.1562, "EPHEMERIS_TYPE": 0, "CLASSIFICATION_TYPE": "U", "NORAD_CAT_ID": 34001, "ELEMENT_SET_NO": 999, "REV_AT_EPOCH": 88338, "BSTAR": 0.00016242513, "MEAN_MOTION_DOT": 4.57e-06, "MEAN_MOTION_DDOT": 0}, "tle": {"line1": "1 34001U 93036GL  25360.10040661  .00000457  00000+0  16243-3 0  9997", "line2": "2 34001  74.0384 257.0206 0020500 335.3950 150.1562 14.37113172883383"}}, "geometry": {"type": "Point", "coordinates": [82.71460081563262, -24.55541310010384]}}, {"type": "Feature", "properties": {"norad_id": 34003, "name": "COSMOS 2251 DEB", "group": "cosmos-2251-debris", "lat": -55.67624843553892, "lon": 105.7046243661273, "alt_km": 1083.767733222653, "timestamp": "2025-12-27T02:10:16.582357+00:00", "meta": {"OBJECT_NAME": "COSMOS 2251 DEB", "OBJECT_ID": "1993-036GN", "EPOCH": "2025-12-25T19:31:29.334144", "MEAN_MOTION": 13.84221361, "ECCENTRICITY": 0.02753646, "INCLINATION": 74.0775, "RA_OF_ASC_NODE": 263.1391, "ARG_OF_PERICENTER": 12.2095, "MEAN_ANOMALY": 348.5523, "EPHEMERIS_TYPE": 0, "CLASSIFICATION_TYPE": "U", "NORAD_CAT_ID": 34003, "ELEMENT_SET_NO": 999, "REV_AT_EPOCH": 84606, "BSTAR": 0.00186549, "MEAN_MOTION_DOT": 2.77e-05, "MEAN_MOTION_DDOT": 0}, "tle": {"line1": "1 34003U 93036GN  25359.81353396  .00002770  00000+0  18655-2 0  9995", "line2": "2 34003  74.0775 263.1391 0275364  12.2095 348.5523 13.84221361846068"}}, "geometry": {"type": "Point", "coordinates": [105.7046243661273, -55.67624843553892]}}, {"type": "Feature", "properties": {"norad_id": 34004, "name": "COSMOS 2251 DEB", "group": "cosmos-2251-debris", "lat": -10.138189559781367, "lon": -76.73538321984698, "alt_km": 717.9516963664364, "timestamp": "2025-12-27T02:10:16.582367+00:00", "meta": {"OBJECT_NAME": "COSMOS 2251 DEB", "OBJECT_ID": "1993-036GP", "EPOCH": "2025-12-26T19:35:32.405856", "MEAN_MOTION": 14.49136008, "ECCENTRICITY": 0.0033418, "INCLINATION": 74.0355, "RA_OF_ASC_NODE": 286.7126, "ARG_OF_PERICENTER": 297.1921, "MEAN_ANOMALY": 62.5834, "EPHEMERIS_TYPE": 0, "CLASSIFICATION_TYPE": "U", "NORAD_CAT_ID": 34004, "ELEMENT_SET_NO": 999, "REV_AT_EPOCH": 88234, "BSTAR": 0.0012572, "MEAN_MOTION_DOT": 4.79e-05, "MEAN_MOTION_DDOT": 0}, "tle": {"line1": "1 34004U 93036GP  25360.81634729  .00004790  00000+0  12572-2 0  9996", "line2": "2 34004  74.0355 286.7126 0033418 297.1921  62.5834 14.49136008882348"}}, "geometry": {"type": "Point", "coordinates": [-76.73538321984698, -10.138189559781367]}}, {"type": "Feature", "properties": {"norad_id": 34005, "name": "COSMOS 2251 DEB", "group": "cosmos-2251-debris", "lat": 9.126957491381516, "lon": 4.498565584029056, "alt_km": 769.0518019319206, "timestamp": "2025-12-27T02:10:16.582377+00:00", "meta": {"OBJECT_NAME": "COSMOS 2251 DEB", "OBJECT_ID": "1993-036GQ", "EPOCH": "2025-12-26T15:42:50.283360", "MEAN_MOTION": 14.40313987, "ECCENTRICITY": 0.0021251, "INCLINATION": 74.0432, "RA_OF_ASC_NODE": 187.938, "ARG_OF_PERICENTER": 303.8564, "MEAN_ANOMALY": 128.3567, "EPHEMERIS_TYPE": 0, "CLASSIFICATION_TYPE": "U", "NORAD_CAT_ID": 34005, "ELEMENT_SET_NO": 999, "REV_AT_EPOCH": 88579, "BSTAR": 0.00011286, "MEAN_MOTION_DOT": 3.32e-06, "MEAN_MOTION_DDOT": 0}, "tle": {"line1": "1 34005U 93036GQ  25360.65474865  .00000332  00000+0  11286-3 0  9992", "line2": "2 34005  74.0432 187.9380 0021251 303.8564 128.3567 14.40313987885799"}}, "geometry": {"type": "Point", "coordinates": [4.498565584029056, 9.126957491381516]}}, {"type": "Feature", "properties": {"norad_id": 34006, "name": "COSMOS 2251 DEB", "group": "cosmos-2251-debris", "lat": 29.152668781487364, "lon": 123.54448593394719, "alt_km": 570.3823724909898, "timestamp": "2025-12-27T02:10:16.582387+00:00", "meta": {"OBJECT_NAME": "COSMOS 2251 DEB", "OBJECT_ID": "1993-036GR", "EPOCH": "2025-12-25T18:35:55.863168", "MEAN_MOTION": 14.95648156, "ECCENTRICITY": 0.00117121, "INCLINATION": 74.0532, "RA_OF_ASC_NODE": 117.0187, "ARG_OF_PERICENTER": 46.7358, "MEAN_ANOMALY": 103.407, "EPHEMERIS_TYPE": 0, "CLASSIFICATION_TYPE": "U", "NORAD_CAT_ID": 34006, "ELEMENT_SET_NO": 999, "REV_AT_EPOCH": 88863, "BSTAR": 0.0036326632, "MEAN_MOTION_DOT": 0.00040646, "MEAN_MOTION_DDOT": 0}, "tle": {"line1": "1 34006U 93036GR  25359.77495212  .00040646  00000+0  36327-2 0  9997", "line2": "2 34006  74.0532 117.0187 0011712  46.7358 103.4070 14.95648156888633"}}, "geometry": {"type": "Point", "coordinates": [123.54448593394719, 29.152668781487364]}}, {"type": "Feature", "properties": {"norad_id": 34007, "name": "COSMOS 2251 DEB", "group": "cosmos-2251-debris", "lat": -19.036645740233947, "lon": 144.94453898623325, "alt_km": 692.7965576166043, "timestamp": "2025-12-27T02:10:16.582397+00:00", "meta": {"OBJECT_NAME": "COSMOS 2251 DEB", "OBJECT_ID": "1993-036GS", "EPOCH": "2025-12-26T05:35:55.099104", "MEAN_MOTION": 14.64882321, "ECCENTRICITY": 0.0044258, "INCLINATION": 74.0197, "RA_OF_ASC_NODE": 320.9195, "ARG_OF_PERICENTER": 91.4788, "MEAN_ANOMALY": 269.1451, "EPHEMERIS_TYPE": 0, "CLASSIFICATION_TYPE": "U", "NORAD_CAT_ID": 34007, "ELEMENT_SET_NO": 999, "REV_AT_EPOCH": 89277, "BSTAR": 0.00080446, "MEAN_MOTION_DOT": 4.333e-05, "MEAN_MOTION_DDOT": 0}, "tle": {"line1": "1 34007U 93036GS  25360.23327661  .00004333  00000+0  80446-3 0  9998", "line2": "2 34007  74.0197 320.9195 0044258  91.4788 269.1451 14.64882321892773"}}, "geometry": {"type": "Point", "coordinates": [144.94453898623325, -19.036645740233947]}}, {"type": "Feature", "properties": {"norad_id": 34008, "name": "COSMOS 2251 DEB", "group": "cosmos-2251-debris", "lat": 63.14519636304149, "lon": -21.280757088393, "alt_km": 786.242973647174, "timestamp": "2025-12-27T02:10:16.582407+00:00", "meta": {"OBJECT_NAME": "COSMOS 2251 DEB", "OBJECT_ID": "1993-036GT", "EPOCH": "2025-12-26T21:06:10.662048", "MEAN_MOTION": 14.33155979, "ECCENTRICITY": 0.002468, "INCLINATION": 74.035, "RA_OF_ASC_NODE": 304.6769, "ARG_OF_PERICENTER": 297.6671, "MEAN_ANOMALY": 121.1664, "EPHEMERIS_TYPE": 0, "CLASSIFICATION_TYPE": "U", "NORAD_CAT_ID": 34008, "ELEMENT_SET_NO": 999, "REV_AT_EPOCH": 88167, "BSTAR": 0.00013316, "MEAN_MOTION_DOT": 3.41e-06, "MEAN_MOTION_DDOT": 0}, "tle": {"line1": "1 34008U 93036GT  25360.87929007  .00000341  00000+0  13316-3 0  9998", "line2": "2 34008  74.0350 304.6769 0024680 297.6671 121.1664 14.33155979881677"}}, "geometry": {"type": "Point", "coordinates": [-21.280757088393, 63.14519636304149]}}, {"type": "Feature", "properties": {"norad_id": 34009, "name": "COSMOS 2251 DEB", "group": "cosmos-2251-debris", "lat": 65.96609957602884, "lon": 90.78277023102615, "alt_km": 774.7321941952259, "timestamp": "2025-12-27T02:10:16.582429+00:00", "meta": {"OBJECT_NAME": "COSMOS 2251 DEB", "OBJECT_ID": "1993-036GU", "EPOCH": "2025-12-26T07:48:31.777056", "MEAN_MOTION": 14.33233263, "ECCENTRICITY": 0.0027046, "INCLINATION": 74.0378, "RA_OF_ASC_NODE": 312.1087, "ARG_OF_PERICENTER": 17.8871, "MEAN_ANOMALY": 103.9021, "EPHEMERIS_TYPE": 0, "CLASSIFICATION_TYPE": "U", "NORAD_CAT_ID": 34009, "ELEMENT_SET_NO": 999, "REV_AT_EPOCH": 88140, "BSTAR": 0.00016577, "MEAN_MOTION_DOT": 4.32e-06, "MEAN_MOTION_DDOT": 0}, "tle": {"line1": "1 34009U 93036GU  25360.32536779  .00000432  00000+0  16577-3 0  9992", "line2": "2 34009  74.0378 312.1087 0027046  17.8871 103.9021 14.33233263881407"}}, "geometry": {"type": "Point", "coordinates": [90.78277023102615, 65.96609957602884]}}, {"type": "Feature", "properties": {"norad_id": 34010, "name": "COSMOS 2251 DEB", "group": "cosmos-2251-debris", "lat": 45.156356740926775, "lon": 56.391480940422376, "alt_km": 497.580391039568, "timestamp": "2025-12-27T02:10:16.582440+00:00", "meta": {"OBJECT_NAME": "COSMOS 2251 DEB", "OBJECT_ID": "1993-036GV", "EPOCH": "2025-12-26T03:29:31.387488", "MEAN_MOTION": 15.20965145, "ECCENTRICITY": 0.00048609, "INCLINATION": 73.996, "RA_OF_ASC_NODE": 255.153, "ARG_OF_PERICENTER": 56.4406, "MEAN_ANOMALY": 303.7255, "EPHEMERIS_TYPE": 0, "CLASSIFICATION_TYPE": "U", "NORAD_CAT_ID": 34010, "ELEMENT_SET_NO": 999, "REV_AT_EPOCH": 89489, "BSTAR": 0.0037296463, "MEAN_MOTION_DOT": 0.00083596, "MEAN_MOTION_DDOT": 0}, "tle": {"line1": "1 34010U 93036GV  25360.14550217  .00083596  00000+0  37296-2 0  9999", "line2": "2 34010  73.9960 255.1530 0004860  56.4406 303.7255 15.20965145894899"}}, "geometry": {"type": "Point", "coordinates": [56.391480940422376, 45.156356740926775]}}, {"type": "Feature", "properties": {"norad_id": 34011, "name": "COSMOS 2251 DEB", "group": "cosmos-2251-debris", "lat": -15.321709262467946, "lon": 128.02307975918768, "alt_km": 782.5512852421462, "timestamp": "2025-12-27T02:10:16.582451+00:00", "meta": {"OBJECT_NAME": "COSMOS 2251 DEB", "OBJECT_ID": "1993-036GW", "EPOCH": "2025-12-26T06:56:58.562016", "MEAN_MOTION": 14.41833562, "ECCENTRICITY": 0.0036404, "INCLINATION": 74.0149, "RA_OF_ASC_NODE": 305.0043, "ARG_OF_PERICENTER": 24.9822, "MEAN_ANOMALY": 335.3085, "EPHEMERIS_TYPE": 0, "CLASSIFICATION_TYPE": "U", "NORAD_CAT_ID": 34011, "ELEMENT_SET_NO": 999, "REV_AT_EPOCH": 88111, "BSTAR": 0.00082641, "MEAN_MOTION_DOT": 2.698e-05, "MEAN_MOTION_DDOT": 0}, "tle": {"line1": "1 34011U 93036GW  25360.28956669  .00002698  00000+0  82641-3 0  9995", "line2": "2 34011  74.0149 305.0043 0036404  24.9822 335.3085 14.41833562881118"}}, "geometry": {"type": "Point", "coordinates": [128.02307975918768, -15.321709262467946]}}]}